{"spkid": "50765045", "covariance": {"elements": [{"units": null, "value": ".4887878979624081", "title": "eccentricity", "sigma": 4.29045859644058e-08, "name": "e", "label": "e"}, {"name": "q", "sigma": 7.92986209819126e-08, "title": "perihelion distance", "value": ".9565199014537642", "units": "au", "label": "q"}, {"label": "tp", "units": "TDB", "value": "2457805.584994423168", "title": "time of perihelion passage", "sigma": 2.00724419579926e-05, "name": "tp"}, {"title": "longitude of the ascending node", "value": "22.34968745124146", "units": "deg", "name": "om", "sigma": 2.67550843992572e-05, "label": "node"}, {"label": "peri", "units": "deg", "value": "140.5673932892734", "title": "argument of perihelion", "sigma": 3.41304893356615e-05, "name": "w"}, {"label": "i", "sigma": 8.12680961960788e-06, "name": "i", "title": "inclination", "value": "14.55871844395402", "units": "deg"}], "data": [["1.840803496777091E-15", "-3.363759966087708E-15", "-3.206526305848317E-13", "3.985381456512352E-13", "-4.643383185160915E-13", "-8.27607781429515E-14"], ["-3.363759966087708E-15", "6.288271289633034E-15", "6.350468365205026E-13", "-7.603813378308798E-13", "9.260724556980277E-13", "1.683149431791773E-13"], ["-3.206526305848317E-13", "6.350468365205026E-13", "4.029029261569814E-10", "-1.973983100070113E-10", "5.082702458356533E-10", "7.596544574907786E-11"], ["3.985381456512352E-13", "-7.603813378308798E-13", "-1.973983100070113E-10", "7.158345412113777E-10", "-7.980131318215073E-10", "2.281009080920624E-11"], ["-4.643383185160915E-13", "9.260724556980277E-13", "5.082702458356533E-10", "-7.980131318215073E-10", "1.164890302291705E-9", "4.637805342142479E-11"], ["-8.27607781429515E-14", "1.683149431791773E-13", "7.596544574907786E-11", "2.281009080920624E-11", "4.637805342142479E-11", "6.604503459335123E-11"]], "labels": ["e", "q", "tp", "node", "peri", "i"], "epoch": "2457948.5"}, "elements": [{"sigma": "4.3051E-8", "name": "e", "value": ".4888992167297518", "title": "eccentricity", "units": null, "label": "e"}, {"label": "a", "units": "au", "value": "1.871396365692909", "title": "semi-major axis", "name": "a", "sigma": "2.3202E-8"}, {"units": "au", "value": ".9564721483147418", "title": "perihelion distance", "sigma": "7.9574E-8", "name": "q", "label": "q"}, {"name": "i", "sigma": "8.1246E-6", "title": "inclination; angle with respect to x-y ecliptic plane", "value": "14.56381538776405", "units": "deg", "label": "i"}, {"name": "om", "sigma": "2.6724E-5", "value": "22.25120475170488", "title": "longitude of the ascending node", "units": "deg", "label": "node"}, {"name": "w", "sigma": "3.4071E-5", "title": "argument of perihelion", "value": "140.6324704722685", "units": "deg", "label": "peri"}, {"label": "M", "units": "deg", "value": "227.1850370770936", "title": "mean anomaly", "sigma": "2.671E-5", "name": "ma"}, {"name": "tp", "sigma": "7.556E-5", "value": "2461545.478162059073", "title": "time of perihelion passage", "units": "TDB", "label": "tp"}, {"units": "d", "value": "935.0764071165286", "title": "sidereal orbital period", "sigma": "1.739E-5", "name": "per", "label": "period"}, {"value": ".3849952766000405", "title": "mean motion", "units": "deg/d", "name": "n", "sigma": "7.16E-9", "label": "n"}, {"sigma": "3.4546E-8", "name": "ad", "units": "au", "title": "aphelion distance", "value": "2.786320583071077", "label": "Q"}], "epoch": "2461200.5"}